HST                     
1 20580U 90037B   26194.47969022  .00003777  00000+0  11487-3 0  9992
2 20580  28.4725 260.8360 0002205  88.3061 271.7788 15.31050347792608
POLAR                   
1 23802U 96013A   26194.22503655  .00000225  00000+0  00000+0 0  9991
2 23802  79.8886 226.7431 6496555 208.1823  91.5623  1.29846073145198
SWAS                    
1 25560U 98071A   26194.38630920  .00001664  00000+0  10939-3 0  9997
2 25560  69.8938 159.9492 0008066 232.5585 127.4846 15.09740592501226
CXO                     
1 25867U 99040B   26195.82327180  .00000664  00000+0  00000+0 0  9998
2 25867  56.5906 115.8556 7794608 310.0752   0.4008  0.37803281 17429
XMM-NEWTON              
1 25989U 99066A   26193.28213418  .00000088  00000+0  00000+0 0  9997
2 25989  64.3559 282.6652 4668218  64.4827   0.1151  0.50124873 23131
TERRA                   
1 25994U 99068A   26194.45088281  .00000199  00000+0  49458-4 0  9991
2 25994  97.9443 242.9540 0003341 126.3051 291.3655 14.61122896413449
CLUSTER II-FM7 (SAMBA)  
1 26410U 00041A   26192.68021872  .00012833  00000+0  00000+0 0  9997
2 26410 149.8437  55.3938 9082311 272.8334 359.6328  0.44896530 20420
CLUSTER II-FM8 (TANGO)  
1 26464U 00045B   26193.20008498  .00013279  00000+0  00000+0 0  9993
2 26464 150.0475  56.7154 9087598 274.0139   2.1073  0.44413276 20428
ODIN                    
1 26702U 01007A   26193.66099178  .00297616  00000+0  10674-2 0  9992
2 26702  97.3743 236.4394 0004666 145.8846 214.2726 15.88033839393424
TIMED                   
1 26998U 01055B   26194.36828712  .00000591  00000+0  57207-4 0  9993
2 26998  74.0665 182.3007 0002182 302.6901  57.4073 14.95342403334730
CORIOLIS                
1 27640U 03001A   26194.48058958  .00000054  00000+0  45757-4 0  9992
2 27640  98.7134 200.9643 0014840 133.7718 226.4689 14.19951511217952
SORCE                   
1 27651U 03004A   26194.17261998  .00001531  00000+0  11990-3 0  9995
2 27651  39.9908 113.4042 0018576 240.8928 119.0006 15.03836025275819
MOST                    
1 27843U 03031D   26194.46924036  .00000022  00000+0  30228-4 0  9999
2 27843  98.7052 201.8287 0009971 169.9377 190.2002 14.21327471194441
SCISAT 1                
1 27858U 03036A   26194.22429381  .00000314  00000+0  44741-4 0  9996
2 27858  73.9302 119.6108 0007465 188.1685 171.9371 14.81477673235301
SWIFT                   
1 28485U 04047A   26194.49745574  .00042865  00000+0  31727-3 0  9996
2 28485  20.5531 341.5542 0001880   5.0706 354.9759 15.71028411191007
HINODE (SOLAR-B)        
1 29479U 06041A   26194.48398687  .00000327  00000+0  64468-4 0  9990
2 29479  98.0549 210.2489 0016913 199.9893 160.0652 14.68657032 58737
SHIJIAN-6 02A (SJ-6 02A)
1 29505U 06046A   26194.47453571  .00004324  00000+0  22083-3 0  9995
2 29505  97.6350 235.7415 0004429  67.3434 292.8267 15.17234784 76254
SHIJIAN-6 02B (SJ-6 02B)
1 29506U 06046B   26194.47140846  .00000830  00000+0  68952-4 0  9998
2 29506  97.7153 223.3674 0013589 342.3508  17.7242 15.01436774 74680
FGRST (GLAST)           
1 33053U 08029A   26193.89505711  .00002204  00000+0  74760-4 0  9995
2 33053  25.5828  25.9616 0007745 270.8522  89.1128 15.24068637999765
SDO                     
1 36395U 10005A   26194.20034537 -.00000107  00000+0  00000+0 0  9995
2 36395  34.7041  85.9474 0001955  51.9513 123.0341  1.00277100 60321
CRYOSAT 2               
1 36508U 10013A   26194.47793830  .00000128  00000+0  31135-4 0  9997
2 36508  92.0359 283.6931 0002367  98.5550 261.5926 14.51897973861891
X-SAT                   
1 37389U 11015C   26194.48226567  .00000275  00000+0  13433-3 0  9990
2 37389  98.3519 170.2553 0012706 266.5270  93.4457 14.25214378791426
GCOM-W1 (SHIZUKU)       
1 38337U 12025A   26194.41105181  .00000213  00000+0  57227-4 0  9999
2 38337  98.2023 134.5702 0001333  77.2653  33.1925 14.57089299752856
NUSTAR                  
1 38358U 12031A   26194.58334491  .00011864  00000+0  67365-3 0  9992
2 38358   6.0255 196.1033 0007413 152.2025  75.8172 15.09031696  1306
NEOSSAT                 
1 39089U 13009D   26194.48126558  .00000062  00000+0  36036-4 0  9992
2 39089  98.4188  13.8901 0011350 162.1759 197.9828 14.35835248700512
BRITE-AUSTRIA           
1 39091U 13009F   26194.46679951  .00000086  00000+0  43851-4 0  9992
2 39091  98.4006  13.2537 0010667 155.6045 204.5649 14.36552090700820
IRIS                    
1 39197U 13033A   26194.49480924  .00000522  00000+0  66006-4 0  9991
2 39197  97.9319  33.6889 0023225 230.8913 129.0237 14.85934939704286
HISAKI (SPRINT-A)       
1 39253U 13049A   26193.97917040  .00000078  00000+0  14580-4 0  9993
2 39253  29.7206  88.8790 0136944 225.9387 132.9837 13.55546585634927
CASSIOPE                
1 39265U 13055A   26194.51456765  .00021565 -53802-6  23124-3 0  9999
2 39265  80.9124  34.6894 0283197 333.6039  25.0990 15.27349248671680
STSAT-3                 
1 39422U 13066G   26194.47964542  .00001259  00000+0  98331-4 0  9993
2 39422  97.6186 163.9436 0008956 312.5706  47.4763 15.02879831688156
SWARM B                 
1 39451U 13067A   26194.51565441  .00002076  00000+0  73119-4 0  9991
2 39451  87.7458 334.3180 0002395  83.1061 277.0460 15.28710651687264
